name,address,Phone,Phone,Practice Location,city,state,postcode,country,Fax,Email,Website Link,Description
"Aaron Hartman, MD","
                                                                                531 40th Street
                                                                              Des Moines,
                          IA 50312-3503 US                        ","
                        (515) 277-9998                      ","
                        (515) 277-9998                      ","Des Moines Acupuncture & Functional Medicine Clinic 531 40th Street Des Moines, IA 50312-3503 US","
                                                                              Des Moines",IA,50312-3503,US,,goodhealthdsm@gmail.com,http://Www.desmoinesacupunctureworks.com,"
                  ,Information for Patients,

                                      ,About My Practice,
                    ,Chinese Medicine and Functional Medicine. ,
                  
                  
                  
                  
                                      ,Languages Spoken,
                    ,
                                              ,English,
                                          ,
                  
                  
                  
                                      ,IFM Coursework,
                    ,
                                              ,Applying Functional Medicine in Clinical Practice,
                                              ,Cardiometabolic Advanced Practice Module,
                                              ,Detox Advanced Practice Module,
                                              ,Energy Advanced Practice Module,
                                              ,GI Advanced Practice Module,
                                              ,Hormone Advanced Practice Module,
                                              ,Immune Advanced Practice Module,
                                          ,
                  
                "
